{"type": "FeatureCollection", "features": [ {"type": "Feature", "properties": {"norad_id": 34141, "name": "COSMOS 2251 DEB", "group": "cosmos-2251-debris", "lat": 15.080382719792606, "lon": 16.154970247688514, "alt_km": 721.8381470059421, "timestamp": "2025-12-21T20:41:08.349692+00:00", "meta": {"OBJECT_NAME": "COSMOS 2251 DEB", "OBJECT_ID": "1993-036LN", "EPOCH": "2025-12-21T07:25:33.142368", "MEAN_MOTION": 14.49318951, "ECCENTRICITY": 0.0046552, "INCLINATION": 74.0107, "RA_OF_ASC_NODE": 12.7614, "ARG_OF_PERICENTER": 95.9283, "MEAN_ANOMALY": 278.9267, "EPHEMERIS_TYPE": 0, "CLASSIFICATION_TYPE": "U", "NORAD_CAT_ID": 34141, "ELEMENT_SET_NO": 999, "REV_AT_EPOCH": 87818, "BSTAR": 0.00099365, "MEAN_MOTION_DOT": 3.82e-05, "MEAN_MOTION_DDOT": 0}, "tle": {"line1": "1 34141U 93036LN  25355.30941137  .00003820  00000+0  99365-3 0  9999", "line2": "2 34141  74.0107  12.7614 0046552  95.9283 278.9267 14.49318951878181"}}, "geometry": {"type": "Point", "coordinates": [16.154970247688514, 15.080382719792606]}}, {"type": "Feature", "properties": {"norad_id": 34270, "name": "COSMOS 2251 DEB", "group": "cosmos-2251-debris", "lat": 42.31230730752479, "lon": 93.918876345289, "alt_km": 653.6814666198206, "timestamp": "2025-12-21T20:41:08.349701+00:00", "meta": {"OBJECT_NAME": "COSMOS 2251 DEB", "OBJECT_ID": "1993-036LQ", "EPOCH": "2025-12-20T21:07:59.009376", "MEAN_MOTION": 14.65226535, "ECCENTRICITY": 0.0047885, "INCLINATION": 74.0117, "RA_OF_ASC_NODE": 290.9388, "ARG_OF_PERICENTER": 81.2861, "MEAN_ANOMALY": 279.3727, "EPHEMERIS_TYPE": 0, "CLASSIFICATION_TYPE": "U", "NORAD_CAT_ID": 34270, "ELEMENT_SET_NO": 999, "REV_AT_EPOCH": 89215, "BSTAR": 0.00047643, "MEAN_MOTION_DOT": 2.579e-05, "MEAN_MOTION_DDOT": 0}, "tle": {"line1": "1 34270U 93036LQ  25354.88054409  .00002579  00000+0  47643-3 0  9993", "line2": "2 34270  74.0117 290.9388 0047885  81.2861 279.3727 14.65226535892156"}}, "geometry": {"type": "Point", "coordinates": [93.918876345289, 42.31230730752479]}}, {"type": "Feature", "properties": {"norad_id": 34271, "name": "COSMOS 2251 DEB", "group": "cosmos-2251-debris", "lat": -73.64208439636856, "lon": 79.11841433224922, "alt_km": 654.0238375681238, "timestamp": "2025-12-21T20:41:08.349710+00:00", "meta": {"OBJECT_NAME": "COSMOS 2251 DEB", "OBJECT_ID": "1993-036LR", "EPOCH": "2025-12-21T13:05:02.499648", "MEAN_MOTION": 14.70932329, "ECCENTRICITY": 0.00183649, "INCLINATION": 74.0189, "RA_OF_ASC_NODE": 182.2165, "ARG_OF_PERICENTER": 235.5412, "MEAN_ANOMALY": 154.3215, "EPHEMERIS_TYPE": 0, "CLASSIFICATION_TYPE": "U", "NORAD_CAT_ID": 34271, "ELEMENT_SET_NO": 999, "REV_AT_EPOCH": 88364, "BSTAR": 0.0015196952, "MEAN_MOTION_DOT": 9.315e-05, "MEAN_MOTION_DDOT": 0}, "tle": {"line1": "1 34271U 93036LR  25355.54516782  .00009315  00000+0  15197-2 0  9998", "line2": "2 34271  74.0189 182.2165 0018364 235.5412 154.3215 14.70932329883647"}}, "geometry": {"type": "Point", "coordinates": [79.11841433224922, -73.64208439636856]}}, {"type": "Feature", "properties": {"norad_id": 34273, "name": "COSMOS 2251 DEB", "group": "cosmos-2251-debris", "lat": -27.492664166239354, "lon": 61.419190262544305, "alt_km": 701.3182821394994, "timestamp": "2025-12-21T20:41:08.349719+00:00", "meta": {"OBJECT_NAME": "COSMOS 2251 DEB", "OBJECT_ID": "1993-036LT", "EPOCH": "2025-12-21T04:31:13.266336", "MEAN_MOTION": 14.6129347, "ECCENTRICITY": 0.0013647, "INCLINATION": 74.0363, "RA_OF_ASC_NODE": 71.2735, "ARG_OF_PERICENTER": 197.1712, "MEAN_ANOMALY": 192.2467, "EPHEMERIS_TYPE": 0, "CLASSIFICATION_TYPE": "U", "NORAD_CAT_ID": 34273, "ELEMENT_SET_NO": 999, "REV_AT_EPOCH": 88745, "BSTAR": 0.0005508011, "MEAN_MOTION_DOT": 2.694e-05, "MEAN_MOTION_DDOT": 0}, "tle": {"line1": "1 34273U 93036LT  25355.18834799  .00002694  00000+0  55080-3 0  9990", "line2": "2 34273  74.0363  71.2735 0013647 197.1712 192.2467 14.61293470887458"}}, "geometry": {"type": "Point", "coordinates": [61.419190262544305, -27.492664166239354]}}, {"type": "Feature", "properties": {"norad_id": 34274, "name": "COSMOS 2251 DEB", "group": "cosmos-2251-debris", "lat": 9.005022447208427, "lon": -131.61385327073415, "alt_km": 665.7025242061709, "timestamp": "2025-12-21T20:41:08.349728+00:00", "meta": {"OBJECT_NAME": "COSMOS 2251 DEB", "OBJECT_ID": "1993-036LU", "EPOCH": "2025-12-21T13:40:27.056640", "MEAN_MOTION": 14.64873865, "ECCENTRICITY": 0.0021536, "INCLINATION": 74.0039, "RA_OF_ASC_NODE": 51.5544, "ARG_OF_PERICENTER": 201.1646, "MEAN_ANOMALY": 229.4694, "EPHEMERIS_TYPE": 0, "CLASSIFICATION_TYPE": "U", "NORAD_CAT_ID": 34274, "ELEMENT_SET_NO": 999, "REV_AT_EPOCH": 88805, "BSTAR": 0.00075690295, "MEAN_MOTION_DOT": 4.029e-05, "MEAN_MOTION_DDOT": 0}, "tle": {"line1": "1 34274U 93036LU  25355.56975760  .00004029  00000+0  75690-3 0  9990", "line2": "2 34274  74.0039  51.5544 0021536 201.1646 229.4694 14.64873865888053"}}, "geometry": {"type": "Point", "coordinates": [-131.61385327073415, 9.005022447208427]}}, {"type": "Feature", "properties": {"norad_id": 34276, "name": "COSMOS 2251 DEB", "group": "cosmos-2251-debris", "lat": -37.897820676526976, "lon": -99.13684022001142, "alt_km": 692.3284772525731, "timestamp": "2025-12-21T20:41:08.349737+00:00", "meta": {"OBJECT_NAME": "COSMOS 2251 DEB", "OBJECT_ID": "1993-036LW", "EPOCH": "2025-12-21T11:31:29.838144", "MEAN_MOTION": 14.57280423, "ECCENTRICITY": 0.00222777, "INCLINATION": 74.0238, "RA_OF_ASC_NODE": 68.703, "ARG_OF_PERICENTER": 214.6795, "MEAN_ANOMALY": 163.2777, "EPHEMERIS_TYPE": 0, "CLASSIFICATION_TYPE": "U", "NORAD_CAT_ID": 34276, "ELEMENT_SET_NO": 999, "REV_AT_EPOCH": 88720, "BSTAR": 0.00052965539, "MEAN_MOTION_DOT": 2.375e-05, "MEAN_MOTION_DDOT": 0}, "tle": {"line1": "1 34276U 93036LW  25355.48020646  .00002375  00000+0  52966-3 0  9990", "line2": "2 34276  74.0238  68.7030 0022277 214.6795 163.2777 14.57280423887200"}}, "geometry": {"type": "Point", "coordinates": [-99.13684022001142, -37.897820676526976]}}, {"type": "Feature", "properties": {"norad_id": 34297, "name": "COSMOS 2251 DEB", "group": "cosmos-2251-debris", "lat": -73.33654576596162, "lon": -165.36662430481363, "alt_km": 770.196947410438, "timestamp": "2025-12-21T20:41:08.349746+00:00", "meta": {"OBJECT_NAME": "COSMOS 2251 DEB", "OBJECT_ID": "1993-036MT", "EPOCH": "2025-12-21T11:35:05.056224", "MEAN_MOTION": 14.36636305, "ECCENTRICITY": 0.00176239, "INCLINATION": 74.0488, "RA_OF_ASC_NODE": 268.1784, "ARG_OF_PERICENTER": 335.2313, "MEAN_ANOMALY": 139.3882, "EPHEMERIS_TYPE": 0, "CLASSIFICATION_TYPE": "U", "NORAD_CAT_ID": 34297, "ELEMENT_SET_NO": 999, "REV_AT_EPOCH": 88190, "BSTAR": 0.00011341605, "MEAN_MOTION_DOT": 3.08e-06, "MEAN_MOTION_DDOT": 0}, "tle": {"line1": "1 34297U 93036MT  25355.48269741  .00000308  00000+0  11342-3 0  9991", "line2": "2 34297  74.0488 268.1784 0017623 335.2313 139.3882 14.36636305881900"}}, "geometry": {"type": "Point", "coordinates": [-165.36662430481363, -73.33654576596162]}}, {"type": "Feature", "properties": {"norad_id": 34299, "name": "COSMOS 2251 DEB", "group": "cosmos-2251-debris", "lat": -30.481354886813392, "lon": -56.35044548806492, "alt_km": 282.14967819009235, "timestamp": "2025-12-21T20:41:08.349755+00:00", "meta": {"OBJECT_NAME": "COSMOS 2251 DEB", "OBJECT_ID": "1993-036MV", "EPOCH": "2025-12-21T07:18:21.157920", "MEAN_MOTION": 15.97423773, "ECCENTRICITY": 0.0011021, "INCLINATION": 73.9668, "RA_OF_ASC_NODE": 314.7155, "ARG_OF_PERICENTER": 103.7877, "MEAN_ANOMALY": 256.4588, "EPHEMERIS_TYPE": 0, "CLASSIFICATION_TYPE": "U", "NORAD_CAT_ID": 34299, "ELEMENT_SET_NO": 999, "REV_AT_EPOCH": 89146, "BSTAR": 0.0067504, "MEAN_MOTION_DOT": 0.02735257, "MEAN_MOTION_DDOT": 0.006563}, "tle": {"line1": "1 34299U 93036MV  25355.30441155  .02735257  65630-2  67504-2 0  9998", "line2": "2 34299  73.9668 314.7155 0011021 103.7877 256.4588 15.97423773891466"}}, "geometry": {"type": "Point", "coordinates": [-56.35044548806492, -30.481354886813392]}}, {"type": "Feature", "properties": {"norad_id": 34301, "name": "COSMOS 2251 DEB", "group": "cosmos-2251-debris", "lat": 0.21058673337011596, "lon": 148.6266568091824, "alt_km": 622.6967094732809, "timestamp": "2025-12-21T20:41:08.349764+00:00", "meta": {"OBJECT_NAME": "COSMOS 2251 DEB", "OBJECT_ID": "1993-036MX", "EPOCH": "2025-12-21T12:53:35.733696", "MEAN_MOTION": 14.84935944, "ECCENTRICITY": 0.00104761, "INCLINATION": 74.0051, "RA_OF_ASC_NODE": 149.2117, "ARG_OF_PERICENTER": 211.501, "MEAN_ANOMALY": 213.8144, "EPHEMERIS_TYPE": 0, "CLASSIFICATION_TYPE": "U", "NORAD_CAT_ID": 34301, "ELEMENT_SET_NO": 999, "REV_AT_EPOCH": 88531, "BSTAR": 0.0025081033, "MEAN_MOTION_DOT": 0.00021416, "MEAN_MOTION_DDOT": 0}, "tle": {"line1": "1 34301U 93036MX  25355.53721914  .00021416  00000+0  25081-2 0  9995", "line2": "2 34301  74.0051 149.2117 0010476 211.5010 213.8144 14.84935944885312"}}, "geometry": {"type": "Point", "coordinates": [148.6266568091824, 0.21058673337011596]}}, {"type": "Feature", "properties": {"norad_id": 34302, "name": "COSMOS 2251 DEB", "group": "cosmos-2251-debris", "lat": 37.7492011630275, "lon": 119.57084356051054, "alt_km": 747.2594533441415, "timestamp": "2025-12-21T20:41:08.349773+00:00", "meta": {"OBJECT_NAME": "COSMOS 2251 DEB", "OBJECT_ID": "1993-036MY", "EPOCH": "2025-12-21T11:02:15.727200", "MEAN_MOTION": 14.39361117, "ECCENTRICITY": 0.00792713, "INCLINATION": 74.178, "RA_OF_ASC_NODE": 107.6232, "ARG_OF_PERICENTER": 320.4246, "MEAN_ANOMALY": 156.1005, "EPHEMERIS_TYPE": 0, "CLASSIFICATION_TYPE": "U", "NORAD_CAT_ID": 34302, "ELEMENT_SET_NO": 999, "REV_AT_EPOCH": 87846, "BSTAR": 0.00046945234, "MEAN_MOTION_DOT": 1.488e-05, "MEAN_MOTION_DDOT": 0}, "tle": {"line1": "1 34302U 93036MY  25355.45990425  .00001488  00000+0  46945-3 0  9992", "line2": "2 34302  74.1780 107.6232 0079271 320.4246 156.1005 14.39361117878466"}}, "geometry": {"type": "Point", "coordinates": [119.57084356051054, 37.7492011630275]}}]}